Sat_800km_29Deg101_SGP4, 
Sat_800km_29Deg102_SGP4, 
Sat_800km_29Deg103_SGP4, 
Sat_800km_29Deg104_SGP4, 
Sat_800km_29Deg105_SGP4, 
Sat_800km_29Deg106_SGP4, 
Sat_800km_29Deg107_SGP4, 
Sat_800km_29Deg108_SGP4, 
Sat_800km_29Deg109_SGP4, 
Sat_800km_29Deg110_SGP4, 
Sat_800km_29Deg111_SGP4, 
Sat_800km_29Deg112_SGP4, 
Sat_800km_29Deg113_SGP4, 
Sat_800km_29Deg114_SGP4, 
Sat_800km_29Deg115_SGP4, 
Sat_800km_29Deg116_SGP4, 
Sat_800km_29Deg201_SGP4, 
Sat_800km_29Deg202_SGP4, 
Sat_800km_29Deg203_SGP4, 
Sat_800km_29Deg204_SGP4, 
Sat_800km_29Deg205_SGP4, 
Sat_800km_29Deg206_SGP4, 
Sat_800km_29Deg207_SGP4, 
Sat_800km_29Deg208_SGP4, 
Sat_800km_29Deg209_SGP4, 
Sat_800km_29Deg210_SGP4, 
Sat_800km_29Deg211_SGP4, 
Sat_800km_29Deg212_SGP4, 
Sat_800km_29Deg213_SGP4, 
Sat_800km_29Deg214_SGP4, 
Sat_800km_29Deg215_SGP4, 
Sat_800km_29Deg216_SGP4, 
Sat_800km_29Deg301_SGP4, 
Sat_800km_29Deg302_SGP4, 
Sat_800km_29Deg303_SGP4, 
Sat_800km_29Deg304_SGP4, 
Sat_800km_29Deg305_SGP4, 
Sat_800km_29Deg306_SGP4, 
Sat_800km_29Deg307_SGP4, 
Sat_800km_29Deg308_SGP4, 
Sat_800km_29Deg309_SGP4, 
Sat_800km_29Deg310_SGP4, 
Sat_800km_29Deg311_SGP4, 
Sat_800km_29Deg312_SGP4, 
Sat_800km_29Deg313_SGP4, 
Sat_800km_29Deg314_SGP4, 
Sat_800km_29Deg315_SGP4, 
Sat_800km_29Deg316_SGP4, 
Sat_800km_29Deg401_SGP4, 
Sat_800km_29Deg402_SGP4, 
Sat_800km_29Deg403_SGP4, 
Sat_800km_29Deg404_SGP4, 
Sat_800km_29Deg405_SGP4, 
Sat_800km_29Deg406_SGP4, 
Sat_800km_29Deg407_SGP4, 
Sat_800km_29Deg408_SGP4, 
Sat_800km_29Deg409_SGP4, 
Sat_800km_29Deg410_SGP4, 
Sat_800km_29Deg411_SGP4, 
Sat_800km_29Deg412_SGP4, 
Sat_800km_29Deg413_SGP4, 
Sat_800km_29Deg414_SGP4, 
Sat_800km_29Deg415_SGP4, 
Sat_800km_29Deg416_SGP4, 
Sat_800km_29Deg501_SGP4, 
Sat_800km_29Deg502_SGP4, 
Sat_800km_29Deg503_SGP4, 
Sat_800km_29Deg504_SGP4, 
Sat_800km_29Deg505_SGP4, 
Sat_800km_29Deg506_SGP4, 
Sat_800km_29Deg507_SGP4, 
Sat_800km_29Deg508_SGP4, 
Sat_800km_29Deg509_SGP4, 
Sat_800km_29Deg510_SGP4, 
Sat_800km_29Deg511_SGP4, 
Sat_800km_29Deg512_SGP4, 
Sat_800km_29Deg513_SGP4, 
Sat_800km_29Deg514_SGP4, 
Sat_800km_29Deg515_SGP4, 
Sat_800km_29Deg516_SGP4, 
Sat_800km_29Deg601_SGP4, 
Sat_800km_29Deg602_SGP4, 
Sat_800km_29Deg603_SGP4, 
Sat_800km_29Deg604_SGP4, 
Sat_800km_29Deg605_SGP4, 
Sat_800km_29Deg606_SGP4, 
Sat_800km_29Deg607_SGP4, 
Sat_800km_29Deg608_SGP4, 
Sat_800km_29Deg609_SGP4, 
Sat_800km_29Deg610_SGP4, 
Sat_800km_29Deg611_SGP4, 
Sat_800km_29Deg612_SGP4, 
Sat_800km_29Deg613_SGP4, 
Sat_800km_29Deg614_SGP4, 
Sat_800km_29Deg615_SGP4, 
Sat_800km_29Deg616_SGP4, 
Sat_800km_29Deg701_SGP4, 
Sat_800km_29Deg702_SGP4, 
Sat_800km_29Deg703_SGP4, 
Sat_800km_29Deg704_SGP4, 
Sat_800km_29Deg705_SGP4, 
Sat_800km_29Deg706_SGP4, 
Sat_800km_29Deg707_SGP4, 
Sat_800km_29Deg708_SGP4, 
Sat_800km_29Deg709_SGP4, 
Sat_800km_29Deg710_SGP4, 
Sat_800km_29Deg711_SGP4, 
Sat_800km_29Deg712_SGP4, 
Sat_800km_29Deg713_SGP4, 
Sat_800km_29Deg714_SGP4, 
Sat_800km_29Deg715_SGP4, 
Sat_800km_29Deg716_SGP4


                         Two Line Element Set                        
---------------------------------------------------------------------
1 99999U          21305.00000000 -.00000094  00000-0 -36767-4 0 00007
2 99999 029.0167 000.0781 0005106 264.8962 095.3405 14.28719153000015


                         Two Line Element Set                        
---------------------------------------------------------------------
1 99999U          21305.00000000 -.00000153  00000-0 -59757-4 0 00007
2 99999 029.0168 000.0782 0005117 265.1837 117.5529 14.28719200000011


                         Two Line Element Set                        
---------------------------------------------------------------------
1 99999U          21305.00000000 -.00000198  00000-0 -77156-4 0 00009
2 99999 029.0168 000.0783 0005116 265.4934 139.7431 14.28719244000018


                         Two Line Element Set                        
---------------------------------------------------------------------
1 99999U          21305.00000000 -.00000260  00000-0 -10129-3 0 00005
2 99999 029.0167 000.0783 0005105 265.7786 161.9578 14.28719318000014


                         Two Line Element Set                        
---------------------------------------------------------------------
1 99999U          21305.00000000 -.00000352  00000-0 -13746-3 0 00005
2 99999 029.0167 000.0783 0005085 265.9936 184.2427 14.28719438000014


                         Two Line Element Set                        
---------------------------------------------------------------------
1 99999U          21305.00000000 -.00000459  00000-0 -17914-3 0 00004
2 99999 029.0167 000.0783 0005059 266.1011 206.6351 14.28719591000017


                         Two Line Element Set                        
---------------------------------------------------------------------
1 99999U          21305.00000000 -.00000540  00000-0 -21066-3 0 00008
2 99999 029.0167 000.0782 0005032 266.0835 229.1525 14.28719734000012


                         Two Line Element Set                        
---------------------------------------------------------------------
1 99999U          21305.00000000 -.00000549  00000-0 -21411-3 0 00001
2 99999 029.0167 000.0781 0005008 265.9500 251.7860 14.28719811000010


                         Two Line Element Set                        
---------------------------------------------------------------------
1 99999U          21305.00000000 -.00000457  00000-0 -17832-3 0 00001
2 99999 029.0167 000.0781 0004992 265.7307 274.5053 14.28719779000014


                         Two Line Element Set                        
---------------------------------------------------------------------
1 99999U          21305.00000000 -.00000277  00000-0 -10817-3 0 00007
2 99999 029.0168 000.0782 0004983 265.4632 297.2728 14.28719635000016


                         Two Line Element Set                        
---------------------------------------------------------------------
1 99999U          21305.00000000 -.00000065  00000-0 -25388-4 0 00002
2 99999 029.0168 000.0783 0004984 265.1819 320.0542 14.28719423000016


                         Two Line Element Set                        
---------------------------------------------------------------------
1 99999U          21305.00000000  .00000110  00000-0  42920-4 0 00002
2 99999 029.0167 000.0783 0004992 264.9171 342.8191 14.28719214000012


                         Two Line Element Set                        
---------------------------------------------------------------------
1 99999U          21305.00000000  .00000199  00000-0  77619-4 0 00002
2 99999 029.0167 000.0783 0005010 264.7020 005.5344 14.28719066000013


                         Two Line Element Set                        
---------------------------------------------------------------------
1 99999U          21305.00000000  .00000190  00000-0  74031-4 0 00008
2 99999 029.0167 000.0783 0005034 264.5741 028.1624 14.28719007000014


                         Two Line Element Set                        
---------------------------------------------------------------------
1 99999U          21305.00000000  .00000107  00000-0  41859-4 0 00008
2 99999 029.0167 000.0782 0005061 264.5631 050.6736 14.28719027000017


                         Two Line Element Set                        
---------------------------------------------------------------------
1 99999U          21305.00000000 -.00000002  00000-0 -77556-6 0 00009
2 99999 029.0167 000.0781 0005086 264.6767 073.0601 14.28719090000014


                         Two Line Element Set                        
---------------------------------------------------------------------
1 99999U          21305.00000000 -.00000115  00000-0 -44720-4 0 00009
2 99999 028.9226 051.5863 0005095 264.9586 101.6156 14.28723010000012


                         Two Line Element Set                        
---------------------------------------------------------------------
1 99999U          21305.00000000 -.00000167  00000-0 -65060-4 0 00006
2 99999 028.9226 051.5864 0005103 265.2589 123.8152 14.28723053000019


                         Two Line Element Set                        
---------------------------------------------------------------------
1 99999U          21305.00000000 -.00000214  00000-0 -83401-4 0 00008
2 99999 028.9226 051.5864 0005099 265.5684 146.0056 14.28723104000019


                         Two Line Element Set                        
---------------------------------------------------------------------
1 99999U          21305.00000000 -.00000284  00000-0 -11097-3 0 00006
2 99999 028.9226 051.5865 0005086 265.8398 168.2341 14.28723190000019


                         Two Line Element Set                        
---------------------------------------------------------------------
1 99999U          21305.00000000 -.00000384  00000-0 -14977-3 0 00007
2 99999 028.9225 051.5865 0005063 266.0287 190.5450 14.28723323000010


                         Two Line Element Set                        
---------------------------------------------------------------------
1 99999U          21305.00000000 -.00000487  00000-0 -19023-3 0 00008
2 99999 028.9225 051.5864 0005036 266.1020 212.9716 14.28723478000010


                         Two Line Element Set                        
---------------------------------------------------------------------
1 99999U          21305.00000000 -.00000552  00000-0 -21534-3 0 00001
2 99999 028.9225 051.5863 0005010 266.0495 235.5241 14.28723607000014


                         Two Line Element Set                        
---------------------------------------------------------------------
1 99999U          21305.00000000 -.00000534  00000-0 -20819-3 0 00006
2 99999 028.9226 051.5863 0004988 265.8871 258.1864 14.28723656000019


                         Two Line Element Set                        
---------------------------------------------------------------------
1 99999U          21305.00000000 -.00000414  00000-0 -16145-3 0 00000
2 99999 028.9226 051.5863 0004973 265.6488 280.9246 14.28723590000019
